[{"OBJECT_NAME":"CAPELLA-13 (ACADIA-3)","OBJECT_ID":"2024-142A","EPOCH":"2026-03-09T16:01:17.787936","MEAN_MOTION":14.87660611,"ECCENTRICITY":0.00013048,"INCLINATION":53.0039,"RA_OF_ASC_NODE":131.9705,"ARG_OF_PERICENTER":85.3202,"MEAN_ANOMALY":274.7927,"EPHEMERIS_TYPE":0,"CLASSIFICATION_TYPE":"U","NORAD_CAT_ID":60419,"ELEMENT_SET_NO":999,"REV_AT_EPOCH":8559,"BSTAR":0.0003793232,"MEAN_MOTION_DOT":3.25e-5,"MEAN_MOTION_DDOT":0},{"OBJECT_NAME":"GEESAT-4 06","OBJECT_ID":"2025-170F","EPOCH":"2026-03-09T22:38:42.354528","MEAN_MOTION":14.83615146,"ECCENTRICITY":0.00188872,"INCLINATION":49.9829,"RA_OF_ASC_NODE":274.2895,"ARG_OF_PERICENTER":19.9102,"MEAN_ANOMALY":340.2569,"EPHEMERIS_TYPE":0,"CLASSIFICATION_TYPE":"U","NORAD_CAT_ID":65124,"ELEMENT_SET_NO":999,"REV_AT_EPOCH":3169,"BSTAR":0.00034907965,"MEAN_MOTION_DOT":2.689e-5,"MEAN_MOTION_DDOT":0}]
